1 08820U 76039A   03002.90895751 -.00000008  00000-0  10000-3 0  8859
2 08820 109.8349 124.9991 0044292 336.7603  23.0948  6.38664585366505
